TDRS 3                  
1 19548U 88091B   23339.35372561 -.00000288  00000+0  00000+0 0  9992
2 19548  13.3143 347.2991 0039911 332.5436 192.6388  1.00275078116115
HST                     
1 20580U 90037B   23340.04729344  .00005011  00000+0  25049-3 0  9998
2 20580  28.4675 203.0446 0002803  78.4367  40.8361 15.15123365647793
TDRS 5                  
1 21639U 91054B   23340.19063243  .00000099  00000+0  00000+0 0  9996
2 21639  14.1878   0.5459 0024380 354.4325 341.1502  1.00276708118443
TDRS 6                  
1 22314U 93003B   23339.46895650 -.00000283  00000+0  00000+0 0  9992
2 22314  14.1570   3.8431 0008733 167.1690  26.0096  1.00271160113132
TDRS 7                  
1 23613U 95035B   23339.56668308 -.00000191  00000+0  00000+0 0  9999
2 23613  13.7637 354.6081 0022491  65.1715 303.1712  1.00273630103984
ISS (ZARYA)             
1 25544U 98067A   23340.05227946  .00014354  00000+0  25711-3 0  9992
2 25544  51.6410 197.2798 0001200  13.9694 153.7619 15.50211833428440
LANDSAT 7               
1 25682U 99020A   23340.13056336  .00000638  00000+0  14100-3 0  9997
2 25682  97.9105  10.8974 0001147 102.8766 311.8653 14.60363154310877
TERRA                   
1 25994U 99068A   23340.14971661  .00000730  00000+0  16334-3 0  9997
2 25994  98.0758  44.1245 0000840 211.2905 178.4311 14.59475589274869
TDRS 8                  
1 26388U 00034A   23339.45676962  .00000110  00000+0  00000+0 0  9999
2 26388  11.2254  38.7547 0005051 214.5665 177.3452  1.00270799 85915
TIMED                   
1 26998U 01055B   23339.85516783  .00001978  00000+0  20654-3 0  9992
2 26998  74.0717 289.7446 0001812 304.5085  55.5925 14.90463291192865
TDRS 9                  
1 27389U 02011A   23339.66543274  .00000074  00000+0  00000+0 0  9999
2 27389  10.1828  55.6293 0004576 137.1422 355.4393  0.98980141 81138
AQUA                    
1 27424U 02022A   23340.16305589  .00001479  00000+0  32749-3 0  9992
2 27424  98.3078 284.1901 0001609  52.4415  72.6927 14.58638420148421
TDRS 10                 
1 27566U 02055A   23340.19258627  .00000105  00000+0  00000+0 0  9994
2 27566   9.1974  46.7166 0003004 294.7967 351.4198  1.00269099 76964
SORCE                   
1 27651U 03004A   23339.79993245  .00003606  00000+0  34962-3 0  9997
2 27651  39.9935  96.0820 0020561 297.6911  62.1793 14.93368950133187
AURA                    
1 28376U 04026A   23340.12461354  .00001476  00000+0  33120-3 0  9995
2 28376  98.2300 281.6559 0001090  60.4176 299.7132 14.57999504 31437
SWIFT                   
1 28485U 04047A   23339.76774952  .00008813  00000+0  44277-3 0  9995
2 28485  20.5554 127.3741 0008738 296.3327  63.6211 15.14134775 44626
THEMIS A                
1 30580U 07004A   23339.71836376 -.00000323  00000+0 -37410-2 0  9994
2 30580  10.9209 281.8711 8315581 283.6657 346.6397  0.87833892 33142
THEMIS D                
1 30797U 07004D   23340.07268872 -.00000301  00000+0  00000+0 0  9992
2 30797   7.3136 273.0552 8288966 295.9772  85.6222  0.87834750 57379
THEMIS E                
1 30798U 07004E   23340.15319943 -.00000357  00000+0  00000+0 0  9999
2 30798   8.5161 292.2638 8291197 278.3616 128.0897  0.87832588 57783
AIM                     
1 31304U 07015A   23339.85055323  .00037749  00000+0  93214-3 0  9996
2 31304  97.8865 292.0507 0001974  15.3885 344.7420 15.40413386913004
FGRST (GLAST)           
1 33053U 08029A   23339.72839339  .00003408  00000+0  16012-3 0  9994
2 33053  25.5823 103.0763 0010670 287.5803  72.3567 15.15276878855039
WISE                    
1 36119U 09071A   23339.87235754  .00023389  00000+0  42763-3 0  9997
2 36119  97.1756  11.0490 0002974 121.3982 238.7561 15.49371041778032
TDRS 11                 
1 39070U 13004A   23339.80175487  .00000099  00000+0  00000+0 0  9993
2 39070   2.6946   4.4865 0002717  45.3447 138.9315  1.00278178 39713
TDRS 12                 
1 39504U 14004A   23340.04554302 -.00000255  00000+0  00000+0 0  9996
2 39504   3.5662 358.6822 0004383 234.0878 177.1341  1.00265492 36180
GPM-CORE                
1 39574U 14009C   23339.92692265  .00013577  00000+0  29455-3 0  9993
2 39574  64.9882 163.0917 0012442 282.6181  77.3568 15.44579409555059
MMS 1                   
1 40482U 15011A   23340.16667824 -.00000094  00000+0  00000+0 0  9990
2 40482  35.6671  32.3888 9153776 127.6261  99.0844  0.28406343 14822
MMS 2                   
1 40483U 15011B   23340.16667824 -.00000094  00000+0  00000+0 0  9991
2 40483  35.6749  32.3990 9153046 127.6189  99.0864  0.28406463 14805
MMS 3                   
1 40484U 15011C   23340.16667824 -.00000094  00000+0  00000+0 0  9992
2 40484  35.6580  32.4170 9152583 127.5978  99.1050  0.28409825 14803
MMS 4                   
1 40485U 15011D   23340.16667824 -.00000094  00000+0  00000+0 0  9993
2 40485  35.6607  32.4213 9153465 127.5850  99.1369  0.28409834 14804
TDRS 13                 
1 42915U 17047A   23339.83412734 -.00000084  00000+0  00000+0 0  9993
2 42915   3.8159 340.7778 0012164 123.2041 259.1606  1.00272131 23081
JPSS-1                  
1 43013U 17073A   23340.10450797  .00000140  00000+0  87194-4 0  9991
2 43013  98.7299 275.9245 0001331  62.4989 297.6322 14.19547458313362
